ONEWEB-0063             
1 45448U 20020AA  24075.32137656 -.00000290  00000+0 -85308-3 0  9999
2 45448  87.9037 184.8692 0002213 110.0531 250.0835 13.11415744194714
ONEWEB-0094             
1 45450U 20020AC  24075.29756128  .00000029  00000+0  42463-4 0  9993
2 45450  87.9256 169.7408 0001880  99.2094 260.9250 13.17652732197819
ONEWEB-0087             
1 45451U 20020AD  24075.32786810 -.00000447  00000+0 -12975-2 0  9998
2 45451  87.9031 184.8444 0001992  97.4994 262.6361 13.11417406194609
ONEWEB-0082             
1 45452U 20020AE  24075.32949302  .00004336  00000+0  12197-1 0  9990
2 45452  87.9035 184.8444 0001764  99.1656 260.9672 13.11392884194692
ONEWEB-0050             
1 45453U 20020AF  24075.93040411  .00003475  00000+0  37040-3 0  9990
2 45453  87.9998  51.7376 0005816  75.3535 284.8337 14.88631562217740
ONEWEB-0034             
1 45454U 20020AG  24075.34898106  .00000105  00000+0  25965-3 0  9998
2 45454  87.9043 184.8589 0001835 104.1685 255.9647 13.11419220194613
